NORAD_CAT_ID,OBJECT_NAME,OBJECT_TYPE,EPOCH,MEAN_MOTION,ECCENTRICITY,INCLINATION,RA_OF_ASC_NODE,ARG_OF_PERICENTER,MEAN_ANOMALY,BSTAR,MEAN_MOTION_DOT,MEAN_MOTION_DDOT,TLE_LINE0,TLE_LINE1,TLE_LINE2,SEMIMAJOR_AXIS,PERIOD,APOGEE,PERIGEE,DECAYED
52853.0,STARLINK-4189,PAYLOAD,2024-05-11 17:19:23,15.08856525,0.0001293,53.2162,138.2247,82.8111,277.3028,0.00018581,2.672e-05,0.0,0 STARLINK-4189,1 52853U 22062Z   24132.72180216  .00002672  00000-0  18581-3 0  9997,2 52853  53.2162 138.2247 0001293  82.8111 277.3028 15.08856525105726,6917.83,95.437,540.589,538.8,0.0
52853.0,STARLINK-4189,PAYLOAD,2024-05-12 04:27:06,15.08844008,0.0001338,53.2169,136.1444,90.6305,269.4841,0.00014383,2.002e-05,0.0,0 STARLINK-4189,1 52853U 22062Z   24133.18549036  .00002002  00000-0  14383-3 0  9990,2 52853  53.2169 136.1444 0001338  90.6305 269.4841 15.08844008105796,6917.868,95.437,540.659,538.808,0.0
52853.0,STARLINK-4189,PAYLOAD,2024-05-12 09:13:15,15.08845767,0.0001639,53.2165,135.2518,81.0745,279.0433,8.4194e-05,1.052e-05,0.0,0 STARLINK-4189,1 52853U 22062Z   24133.38420851  .00001052  00000-0  84194-4 0  9997,2 52853  53.2165 135.2518 0001639  81.0745 279.0433 15.08845767105337,6917.863,95.437,540.862,538.594,0.0
52853.0,STARLINK-4189,PAYLOAD,2024-05-12 20:20:58,15.08836054,0.0001704,53.2176,133.1723,111.7,248.4174,1.2118e-05,-9.5e-07,0.0,0 STARLINK-4189,1 52853U 22062Z   24133.84789691 -.00000095  00000-0  12118-4 0  9992,2 52853  53.2176 133.1723 0001704 111.7000 248.4174 15.08836054105894,6917.892,95.438,540.936,538.579,0.0
52853.0,STARLINK-4189,PAYLOAD,2024-05-13 07:28:40,15.0884205,0.0001421,53.2159,131.0878,93.2874,266.828,-3.582e-05,-8.58e-06,0.0,0 STARLINK-4189,1 52853U 22062Z   24134.31157525 -.00000858  00000-0 -35820-4 0  9993,2 52853  53.2159 131.0878 0001421  93.2874 266.8280 15.08842050105471,6917.874,95.437,540.722,538.756,0.0
52853.0,STARLINK-4189,PAYLOAD,2024-05-13 17:00:58,15.08843386,0.0001596,53.2154,129.3012,87.2831,272.8344,-3.8257e-05,-8.97e-06,0.0,0 STARLINK-4189,1 52853U 22062Z   24134.70901373 -.00000897  00000-0 -38257-4 0  9994,2 52853  53.2154 129.3012 0001596  87.2831 272.8344 15.08843386106028,6917.87,95.437,540.839,538.631,0.0
52853.0,STARLINK-4189,PAYLOAD,2024-05-14 05:44:04,15.088316,0.00014,53.2156,126.9224,92.0038,268.1114,-2.5896e-05,-7e-06,0.0,0 STARLINK-4189,1 52853U 22062Z   24135.23894146 -.00000700  00000-0 -25896-4 0  9990,2 52853  53.2156 126.9224 0001400  92.0038 268.1114 15.08831600106103,6917.906,95.438,540.74,538.803,0.0
52853.0,STARLINK-4189,PAYLOAD,2024-05-14 08:54:51,15.08830654,0.0001465,53.216,126.3284,110.1072,250.0077,-0.00012912,-2.342e-05,0.0,0 STARLINK-4189,1 52853U 22062Z   24135.37142540 -.00002342  00000-0 -12912-3 0  9997,2 52853  53.2160 126.3284 0001465 110.1072 250.0077 15.08830654105632,6917.909,95.438,540.787,538.76,0.0
52853.0,STARLINK-4189,PAYLOAD,2024-05-14 16:51:47,15.08827443,0.0001341,53.2161,124.8419,106.1507,253.9633,-0.00010635,-1.979e-05,0.0,0 STARLINK-4189,1 52853U 22062Z   24135.70262924 -.00001979  00000-0 -10635-3 0  9998,2 52853  53.2161 124.8419 0001341 106.1507 253.9633 15.08827443106179,6917.919,95.438,540.711,538.856,0.0
52853.0,STARLINK-4189,PAYLOAD,2024-05-15 08:45:38,15.08836402,0.0001227,53.2155,121.869,103.6389,256.474,5.4085e-05,5.73e-06,0.0,0 STARLINK-4189,1 52853U 22062Z   24136.36502434  .00000573  00000-0  54085-4 0  9999,2 52853  53.2155 121.8690 0001227 103.6389 256.4740 15.08836402106276,6917.891,95.438,540.605,538.908,0.0
52853.0,STARLINK-4189,PAYLOAD,2024-05-16 05:25:37,15.08847848,0.0001173,53.2157,118.0025,94.9797,265.1329,0.00023601,3.471e-05,0.0,0 STARLINK-4189,1 52853U 22062Z   24137.22613319  .00003471  00000-0  23601-3 0  9999,2 52853  53.2157 118.0025 0001173  94.9797 265.1329 15.08847848106404,6917.856,95.437,540.533,538.91,0.0
52853.0,STARLINK-4189,PAYLOAD,2024-05-16 08:36:23,15.088498,0.0001208,53.2154,117.4079,94.3545,265.7586,0.00028657,4.277e-05,0.0,0 STARLINK-4189,1 52853U 22062Z   24137.35861097  .00004277  00000-0  28657-3 0  9992,2 52853  53.2154 117.4079 0001208  94.3545 265.7586 15.08849800105935,6917.85,95.437,540.551,538.88,0.0
52853.0,STARLINK-4189,PAYLOAD,2024-05-17 05:16:24,15.088492,0.0001374,53.2169,113.539,98.3366,261.7782,0.00015272,2.144e-05,0.0,0 STARLINK-4189,1 52853U 22062Z   24138.21973351  .00002144  00000-0  15272-3 0  9995,2 52853  53.2169 113.5390 0001374  98.3366 261.7782 15.08849200106550,6917.852,95.437,540.668,538.767,0.0
52853.0,STARLINK-4189,PAYLOAD,2024-05-17 14:48:44,15.08840976,0.0001231,53.2164,111.7561,85.4912,274.6221,4.3393e-05,4.03e-06,0.0,0 STARLINK-4189,1 52853U 22062Z   24138.61717984  .00000403  00000-0  43393-4 0  9999,2 52853  53.2164 111.7561 0001231  85.4912 274.6221 15.08840976106126,6917.877,95.437,540.594,538.891,0.0
52853.0,STARLINK-4189,PAYLOAD,2024-05-18 14:39:31,15.08839246,0.0001246,53.2163,107.2944,75.1452,284.9678,-3.7724e-05,-8.88e-06,0.0,0 STARLINK-4189,1 52853U 22062Z   24139.61078635 -.00000888  00000-0 -37724-4 0  9993,2 52853  53.2163 107.2944 0001246  75.1452 284.9678 15.08839246106275,6917.883,95.438,540.61,538.886,0.0
52853.0,STARLINK-4189,PAYLOAD,2024-05-19 04:57:59,15.08845359,0.0001514,53.2168,104.6246,108.2982,251.8175,2.3019e-05,7.8e-07,0.0,0 STARLINK-4189,1 52853U 22062Z   24140.20694324  .00000078  00000-0  23019-4 0  9990,2 52853  53.2168 104.6246 0001514 108.2982 251.8175 15.08845359106367,6917.864,95.437,540.776,538.682,0.0
52853.0,STARLINK-4189,PAYLOAD,2024-05-20 04:48:47,15.08836487,0.0001347,53.2164,100.1638,101.9697,258.1446,8.5018e-05,1.065e-05,0.0,0 STARLINK-4189,1 52853U 22062Z   24141.20055380  .00001065  00000-0  85018-4 0  9998,2 52853  53.2164 100.1638 0001347 101.9697 258.1446 15.08836487107001,6917.891,95.438,540.688,538.824,0.0
52853.0,STARLINK-4189,PAYLOAD,2024-05-21 06:14:57,15.08852409,0.0001532,53.2177,95.4039,85.1027,275.014,0.00011872,1.603e-05,0.0,0 STARLINK-4189,1 52853U 22062Z   24142.26038613  .00001603  00000-0  11872-3 0  9999,2 52853  53.2177  95.4039 0001532  85.1027 275.0140 15.08852409107160,6917.842,95.437,540.767,538.648,0.0
52853.0,STARLINK-4189,PAYLOAD,2024-05-22 02:54:58,15.08838947,0.0001502,53.2172,91.5399,107.1088,253.0069,5.8648e-05,6.46e-06,0.0,0 STARLINK-4189,1 52853U 22062Z   24143.12151560  .00000646  00000-0  58648-4 0  9991,2 52853  53.2172  91.5399 0001502 107.1088 253.0069 15.08838947107291,6917.884,95.438,540.788,538.71,0.0
52853.0,STARLINK-4189,PAYLOAD,2024-05-22 06:05:45,15.08842309,0.0001472,53.2179,90.9353,86.5725,273.5436,7.5033e-05,9.06e-06,0.0,0 STARLINK-4189,1 52853U 22062Z   24143.25399351  .00000906  00000-0  75033-4 0  9993,2 52853  53.2179  90.9353 0001472  86.5725 273.5436 15.08842309106825,6917.873,95.437,540.757,538.72,0.0
52853.0,STARLINK-4189,PAYLOAD,2024-05-23 02:45:45,15.08850211,0.0001487,53.2181,87.0729,102.181,257.9349,-1.188e-05,-4.77e-06,0.0,0 STARLINK-4189,1 52853U 22062Z   24144.11510995 -.00000477  00000-0 -11880-4 0  9993,2 52853  53.2181  87.0729 0001487 102.1810 257.9349 15.08850211107447,6917.849,95.437,540.743,538.685,0.0
52853.0,STARLINK-4189,PAYLOAD,2024-05-24 05:47:18,15.08851071,0.0001629,53.2185,82.0184,113.4492,246.6671,1.072e-05,-1.17e-06,0.0,0 STARLINK-4189,1 52853U 22062Z   24145.24118602 -.00000117  00000-0  10720-4 0  9999,2 52853  53.2185  82.0184 0001629 113.4492 246.6671 15.08851071107617,6917.847,95.437,540.838,538.585,0.0
52853.0,STARLINK-4189,PAYLOAD,2024-05-24 20:05:47,15.08835442,0.0001538,53.2178,79.3391,118.6189,241.4958,-9.7346e-06,-4.43e-06,0.0,0 STARLINK-4189,1 52853U 22062Z   24145.83735669 -.00000443  00000-0 -97346-5 0  9995,2 52853  53.2178  79.3391 0001538 118.6189 241.4958 15.08835442107702,6917.894,95.438,540.823,538.695,0.0
52853.0,STARLINK-4189,PAYLOAD,2024-05-25 11:59:41,15.08799333,0.0001169,53.2175,76.3745,117.3388,242.7724,-0.00038148,-6.347e-05,0.0,0 STARLINK-4189,1 52853U 22062Z   24146.49978816 -.00006347  00000-0 -38148-3 0  9993,2 52853  53.2175  76.3745 0001169 117.3388 242.7724 15.08799333107800,6918.005,95.44,540.678,539.061,0.0
52853.0,STARLINK-4189,PAYLOAD,2024-05-25 19:56:35,15.08836277,0.0001388,53.2172,74.8865,95.7452,264.3698,-9.394e-05,-1.783e-05,0.0,0 STARLINK-4189,1 52853U 22062Z   24146.83096316 -.00001783  00000-0 -93940-4 0  9998,2 52853  53.2172  74.8865 0001388  95.7452 264.3698 15.08836277107851,6917.892,95.438,540.717,538.797,0.0
52853.0,STARLINK-4189,PAYLOAD,2024-05-26 05:28:53,15.08842602,0.0001301,53.2177,73.1023,100.2898,259.8241,-2.4638e-05,-6.8e-06,0.0,0 STARLINK-4189,1 52853U 22062Z   24147.22839729 -.00000680  00000-0 -24638-4 0  9998,2 52853  53.2177  73.1023 0001301 100.2898 259.8241 15.08842602107914,6917.872,95.437,540.637,538.837,0.0
52853.0,STARLINK-4189,PAYLOAD,2024-05-26 22:58:08,15.08836051,0.0001257,53.2179,69.8314,91.3601,268.7535,0.00012671,1.729e-05,0.0,0 STARLINK-4189,1 52853U 22062Z   24147.95704021  .00001729  00000-0  12671-3 0  9990,2 52853  53.2179  69.8314 0001257  91.3601 268.7535 15.08836051107537,6917.892,95.438,540.627,538.888,0.0
52853.0,STARLINK-4189,PAYLOAD,2024-05-27 11:41:12,15.08844608,0.0001544,53.2186,67.4512,106.189,253.9272,0.00017926,2.566e-05,0.0,0 STARLINK-4189,1 52853U 22062Z   24148.48695230  .00002566  00000-0  17926-3 0  9998,2 52853  53.2186  67.4512 0001544 106.1890 253.9272 15.08844608108108,6917.866,95.437,540.799,538.663,0.0
52853.0,STARLINK-4189,PAYLOAD,2024-05-27 22:48:55,15.0883617,0.0001881,53.2179,65.3713,130.9856,229.1299,0.00011938,1.612e-05,0.0,0 STARLINK-4189,1 52853U 22062Z   24148.95063960  .00001612  00000-0  11938-3 0  9997,2 52853  53.2179  65.3713 0001881 130.9856 229.1299 15.08836170107682,6917.892,95.438,541.058,538.456,0.0
52853.0,STARLINK-4189,PAYLOAD,2024-05-28 03:35:04,15.0884147,0.0001302,53.2172,64.477,100.1462,259.9677,9.2407e-05,1.183e-05,0.0,0 STARLINK-4189,1 52853U 22062Z   24149.14935914  .00001183  00000-0  92407-4 0  9990,2 52853  53.2172  64.4770 0001302 100.1462 259.9677 15.08841470108207,6917.876,95.437,540.642,538.84,0.0
